NORAD_CAT_ID,OBJECT_NAME,OBJECT_TYPE,EPOCH,MEAN_MOTION,ECCENTRICITY,INCLINATION,RA_OF_ASC_NODE,ARG_OF_PERICENTER,MEAN_ANOMALY,BSTAR,MEAN_MOTION_DOT,MEAN_MOTION_DDOT,TLE_LINE0,TLE_LINE1,TLE_LINE2,SEMIMAJOR_AXIS,PERIOD,APOGEE,PERIGEE,DECAYED
56772.0,STARLINK-6275,PAYLOAD,2024-08-06 12:26:36,14.98322157,0.0003098,70.0017,27.248,267.4122,92.6683,0.00014905,1.686e-05,0.0,0 STARLINK-6275,1 56772U 23078F   24219.51847308  .00001686  00000-0  14905-3 0  9994,2 56772  70.0017  27.2480 0003098 267.4122  92.6683 14.98322157 65547,6950.217,96.108,574.235,569.929,0.0
56772.0,STARLINK-6275,PAYLOAD,2024-08-06 14:02:44,14.98322425,0.0003103,70.0017,27.0797,267.2926,92.7878,0.0001484,1.678e-05,0.0,0 STARLINK-6275,1 56772U 23078F   24219.58523335  .00001678  00000-0  14840-3 0  9991,2 56772  70.0017  27.0797 0003103 267.2926  92.7878 14.98322425 65290,6950.216,96.107,574.238,569.925,0.0
56772.0,STARLINK-6275,PAYLOAD,2024-08-06 22:03:24,14.98325601,0.0003047,70.0021,26.2376,264.1583,95.9229,0.00019544,2.239e-05,0.0,0 STARLINK-6275,1 56772U 23078F   24219.91903347  .00002239  00000-0  19544-3 0  9993,2 56772  70.0021  26.2376 0003047 264.1583  95.9229 14.98325601 65341,6950.206,96.107,574.189,569.954,0.0
56772.0,STARLINK-6275,PAYLOAD,2024-08-07 12:28:36,14.98333691,0.000314,70.0024,24.7227,265.3641,94.7159,0.00022033,2.537e-05,0.0,0 STARLINK-6275,1 56772U 23078F   24220.51987020  .00002537  00000-0  22033-3 0  9999,2 56772  70.0024  24.7227 0003140 265.3641  94.7159 14.98333691 65699,6950.181,96.107,574.229,569.864,0.0
56772.0,STARLINK-6275,PAYLOAD,2024-08-07 20:29:16,14.98338508,0.0003063,70.0025,23.8812,263.8063,96.2747,0.0002866,3.329e-05,0.0,0 STARLINK-6275,1 56772U 23078F   24220.85366767  .00003329  00000-0  28660-3 0  9997,2 56772  70.0025  23.8812 0003063 263.8063  96.2747 14.98338508 65484,6950.167,96.106,574.16,569.903,0.0
56772.0,STARLINK-6275,PAYLOAD,2024-08-08 14:06:45,14.98333325,0.0003021,70.0027,22.0298,263.7182,96.3632,0.00020579,2.364e-05,0.0,0 STARLINK-6275,1 56772U 23078F   24221.58803032  .00002364  00000-0  20579-3 0  9998,2 56772  70.0027  22.0298 0003021 263.7182  96.3632 14.98333325 65598,6950.183,96.107,574.147,569.948,0.0
56772.0,STARLINK-6275,PAYLOAD,2024-08-08 20:31:17,14.98335505,0.0002962,70.0029,21.357,263.6178,96.4644,0.00019738,2.263e-05,0.0,0 STARLINK-6275,1 56772U 23078F   24221.85506866  .00002263  00000-0  19738-3 0  9996,2 56772  70.0029  21.3570 0002962 263.6178  96.4644 14.98335505 65891,6950.176,96.107,574.1,569.982,0.0
56772.0,STARLINK-6275,PAYLOAD,2024-08-09 14:08:46,14.98333685,0.0003156,70.0028,19.5051,270.7365,89.3433,3.9998e-05,3.84e-06,0.0,0 STARLINK-6275,1 56772U 23078F   24222.58942861  .00000384  00000-0  39998-4 0  9999,2 56772  70.0028  19.5051 0003156 270.7365  89.3433 14.98333685 65744,6950.181,96.107,574.24,569.853,0.0
56772.0,STARLINK-6275,PAYLOAD,2024-08-09 20:33:19,14.98320165,0.0003357,70.0019,18.8316,269.7553,90.3221,-0.00025335,-3.114e-05,0.0,0 STARLINK-6275,1 56772U 23078F   24222.85647452 -.00003114  00000-0 -25335-3 0  9992,2 56772  70.0019  18.8316 0003357 269.7553  90.3221 14.98320165 65780,6950.223,96.108,574.421,569.755,0.0
56772.0,STARLINK-6275,PAYLOAD,2024-08-10 14:10:48,14.98326344,0.000359,70.0018,16.9767,277.5425,82.5326,8.8671e-05,9.65e-06,0.0,0 STARLINK-6275,1 56772U 23078F   24223.59083577  .00000965  00000-0  88671-4 0  9998,2 56772  70.0018  16.9767 0003590 277.5425  82.5326 14.98326344 65898,6950.204,96.107,574.564,569.574,0.0
56772.0,STARLINK-6275,PAYLOAD,2024-08-10 20:35:19,14.98352049,0.000324,70.0029,16.3081,271.1275,88.9513,0.00094607,0.0001122,0.0,0 STARLINK-6275,1 56772U 23078F   24223.85786758  .00011220  00000-0  94607-3 0  9999,2 56772  70.0029  16.3081 0003240 271.1275  88.9513 14.98352049 66191,6950.125,96.106,574.242,569.738,0.0
56772.0,STARLINK-6275,PAYLOAD,2024-08-11 09:24:24,14.98338734,0.0002991,70.0065,14.9637,254.3621,105.7208,0.00045567,5.349e-05,0.0,0 STARLINK-6275,1 56772U 23078F   24224.39195080  .00005349  00000-0  45567-3 0  9997,2 56772  70.0065  14.9637 0002991 254.3621 105.7208 14.98338734 66275,6950.166,96.106,574.11,569.952,0.0
56772.0,STARLINK-6275,PAYLOAD,2024-08-12 09:26:25,14.98343761,0.0002706,70.0036,12.4371,273.1835,86.9014,0.00041127,4.819e-05,0.0,0 STARLINK-6275,1 56772U 23078F   24225.39334683  .00004819  00000-0  41127-3 0  9991,2 56772  70.0036  12.4371 0002706 273.1835  86.9014 14.98343761 66429,6950.15,96.106,573.896,570.135,0.0
56772.0,STARLINK-6275,PAYLOAD,2024-08-12 15:50:56,14.9836107,0.0002647,70.0035,11.764,272.307,87.7786,0.00085457,0.00010126,0.0,0 STARLINK-6275,1 56772U 23078F   24225.66037972  .00010126  00000-0  85457-3 0  9994,2 56772  70.0035  11.7640 0002647 272.3070  87.7786 14.98361070 66467,6950.097,96.105,573.802,570.122,0.0
56772.0,STARLINK-6275,PAYLOAD,2024-08-13 09:28:26,14.98320855,0.0003667,69.9937,9.9073,278.5531,81.5213,-0.00023581,-2.905e-05,0.0,0 STARLINK-6275,1 56772U 23078F   24226.39475150 -.00002905  00000-0 -23581-3 0  9997,2 56772  69.9937   9.9073 0003667 278.5531  81.5213 14.98320855 66572,6950.221,96.108,574.635,569.538,0.0
56772.0,STARLINK-6275,PAYLOAD,2024-08-13 19:05:16,14.98281622,0.0002856,69.9983,8.9019,272.121,87.9622,-0.001152,-0.00013794,0.0,0 STARLINK-6275,1 56772U 23078F   24226.79532761 -.00013794  00000-0 -11520-2 0  9990,2 56772  69.9983   8.9019 0002856 272.1210  87.9622 14.98281622 66634,6950.342,96.11,574.193,570.222,0.0
56772.0,STARLINK-6275,PAYLOAD,2024-08-14 03:05:56,14.98295108,0.0003546,70.0,8.0603,270.7673,89.3079,0.0011658,0.00013832,0.0,0 STARLINK-6275,1 56772U 23078F   24227.12913174  .00013832  00000-0  11658-2 0  9992,2 56772  70.0000   8.0603 0003546 270.7673  89.3079 14.98295108 66682,6950.301,96.109,574.63,569.701,0.0
56772.0,STARLINK-6275,PAYLOAD,2024-08-14 14:18:54,14.98325007,0.0002814,70.0032,6.8821,275.5358,84.548,0.0025851,0.00030884,0.0,0 STARLINK-6275,1 56772U 23078F   24227.59645940  .00030884  00000-0  25851-2 0  9992,2 56772  70.0032   6.8821 0002814 275.5358  84.5480 14.98325007 66499,6950.208,96.107,574.029,570.118,0.0
56772.0,STARLINK-6275,PAYLOAD,2024-08-14 19:07:17,14.98358332,0.0003182,70.0025,6.3766,272.9054,87.1741,0.0023428,0.00027994,0.0,0 STARLINK-6275,1 56772U 23078F   24227.79673207  .00027994  00000-0  23428-2 0  9997,2 56772  70.0025   6.3766 0003182 272.9054  87.1741 14.98358332 66785,6950.105,96.105,574.182,569.759,0.0
56772.0,STARLINK-6275,PAYLOAD,2024-08-15 09:32:29,14.98375677,0.0002593,70.0035,4.8615,271.8348,88.2514,0.0023198,0.00027729,0.0,0 STARLINK-6275,1 56772U 23078F   24228.39756233  .00027729  00000-0  23198-2 0  9995,2 56772  70.0035   4.8615 0002593 271.8348  88.2514 14.98375677 66614,6950.052,96.104,573.719,570.114,0.0
56772.0,STARLINK-6275,PAYLOAD,2024-08-15 15:57:01,14.98379255,0.000412,70.0009,4.1823,285.1259,74.9444,0.0023129,0.00027651,0.0,0 STARLINK-6275,1 56772U 23078F   24228.66459563  .00027651  00000-0  23129-2 0  9999,2 56772  70.0009   4.1823 0004120 285.1259  74.9444 14.98379255 66919,6950.041,96.104,574.769,569.042,0.0
56772.0,STARLINK-6275,PAYLOAD,2024-08-16 09:34:29,14.98361623,0.0003828,70.0029,2.3363,278.7275,81.345,0.0018228,0.00021743,0.0,0 STARLINK-6275,1 56772U 23078F   24229.39894911  .00021743  00000-0  18228-2 0  9990,2 56772  70.0029   2.3363 0003828 278.7275  81.3450 14.98361623 67022,6950.095,96.105,574.621,569.3,0.0
56772.0,STARLINK-6275,PAYLOAD,2024-08-16 19:11:16,14.98361972,0.0004315,70.0034,1.3258,279.9589,80.1083,0.0010389,0.00012336,0.0,0 STARLINK-6275,1 56772U 23078F   24229.79950173  .00012336  00000-0  10389-2 0  9995,2 56772  70.0034   1.3258 0004315 279.9589  80.1083 14.98361972 67085,6950.094,96.105,574.958,568.96,0.0
56772.0,STARLINK-6275,PAYLOAD,2024-08-17 08:00:21,14.98338035,0.0001944,69.9982,359.9763,241.7527,118.3436,0.00071546,8.456e-05,0.0,0 STARLINK-6275,1 56772U 23078F   24230.33358725  .00008456  00000-0  71546-3 0  9993,2 56772  69.9982 359.9763 0001944 241.7527 118.3436 14.98338035 67160,6950.168,96.106,573.384,570.682,0.0
56772.0,STARLINK-6275,PAYLOAD,2024-08-18 12:50:46,14.98338486,0.0002483,70.0042,356.9481,232.5876,127.5057,0.00026177,3.032e-05,0.0,0 STARLINK-6275,1 56772U 23078F   24231.53526334  .00003032  00000-0  26177-3 0  9994,2 56772  70.0042 356.9481 0002483 232.5876 127.5057 14.98338486 67349,6950.167,96.106,573.757,570.306,0.0
56772.0,STARLINK-6275,PAYLOAD,2024-08-18 19:15:18,14.98348925,0.0002693,70.0044,356.2769,259.1171,100.9685,0.00060263,7.108e-05,0.0,0 STARLINK-6275,1 56772U 23078F   24231.80229994  .00007108  00000-0  60263-3 0  9998,2 56772  70.0044 356.2769 0002693 259.1171 100.9685 14.98348925 67126,6950.134,96.106,573.871,570.128,0.0
56772.0,STARLINK-6275,PAYLOAD,2024-08-19 09:40:31,14.98337405,0.0002657,70.0042,354.7617,242.5997,117.4892,0.00013775,1.551e-05,0.0,0 STARLINK-6275,1 56772U 23078F   24232.40314189  .00001551  00000-0  13775-3 0  9998,2 56772  70.0042 354.7617 0002657 242.5997 117.4892 14.98337405 67473,6950.17,96.107,573.882,570.188,0.0
56772.0,STARLINK-6275,PAYLOAD,2024-08-19 14:28:55,14.98328413,0.000283,70.0037,354.255,259.2477,100.8364,-8.3917e-05,-1.094e-05,0.0,0 STARLINK-6275,1 56772U 23078F   24232.60342489 -.00001094  00000-0 -83917-4 0  9994,2 56772  70.0037 354.2550 0002830 259.2477 100.8364 14.98328413 67243,6950.198,96.107,574.03,570.096,0.0
56772.0,STARLINK-6275,PAYLOAD,2024-08-19 17:41:12,14.98326701,0.0002855,70.0038,353.918,255.059,105.0253,-5.1816e-05,-7.11e-06,0.0,0 STARLINK-6275,1 56772U 23078F   24232.73694647 -.00000711  00000-0 -51816-4 0  9992,2 56772  70.0038 353.9180 0002855 255.0590 105.0253 14.98326701 67529,6950.203,96.107,574.052,570.084,0.0
56772.0,STARLINK-6275,PAYLOAD,2024-08-20 01:41:53,14.98313652,0.0002612,70.0044,353.0799,265.2206,94.8655,-0.00043115,-5.231e-05,0.0,0 STARLINK-6275,1 56772U 23078F   24233.07075466 -.00005231  00000-0 -43115-3 0  9996,2 56772  70.0044 353.0799 0002612 265.2206  94.8655 14.98313652 67578,6950.243,96.108,573.924,570.293,0.0
